H1 CPF 01  gfz 2021 05 18 12  6382 terrasarx 
H2 0702601  6201 31698    2021 05 18 12 59 42 2021 05 23 00 00 42   120 1 1  0 0 0
H9
10 0 59352  79902.000000  0    -637393.991   2985282.568  -6182213.665
10 0 59352  80022.000000  0    -189257.793   2254856.111  -6513068.265
10 0 59352  80142.000000  0     248967.323   1477605.037  -6730267.945
10 0 59352  80262.000000  0     668990.673    667254.633  -6830076.396
10 0 59352  80382.000000  0    1063087.249   -161771.759  -6810779.756
10 0 59352  80502.000000  0    1424236.104   -994604.853  -6672712.097
10 0 59352  80622.000000  0    1746241.847  -1816189.264  -6418248.846
10 0 59352  80742.000000  0    2023839.113  -2611548.262  -6051770.778
10 0 59352  80862.000000  0    2252778.393  -3366051.366  -5579597.888
10 0 59352  80982.000000  0    2429892.179  -4065683.371  -5009891.941
10 0 59352  81102.000000  0    2553139.232  -4697306.238  -4352524.476
10 0 59352  81222.000000  0    2621626.196  -5248908.494  -3618916.427
10 0 59352  81342.000000  0    2635606.114  -5709841.312  -2821849.664
10 0 59352  81462.000000  0    2596453.842  -6071033.752  -1975250.088
10 0 59352  81582.000000  0    2506618.622  -6325182.287  -1093946.995
10 0 59352  81702.000000  0    2369553.378  -6466908.731   -193410.427
10 0 59352  81822.000000  0    2189621.726  -6492879.538    710526.589
10 0 59352  81942.000000  0    1971986.550  -6401886.333   1601953.113
10 0 59352  82062.000000  0    1722482.105  -6194883.935   2465170.696
10 0 59352  82182.000000  0    1447471.597  -5874982.542   3284978.633
10 0 59352  82302.000000  0    1153696.165  -5447397.413   4046948.148
10 0 59352  82422.000000  0     848118.015  -4919356.825   4737680.047
10 0 59352  82542.000000  0     537761.914  -4299972.384   5345042.231
10 0 59352  82662.000000  0     229558.219  -3600071.885   5858382.444
10 0 59352  82782.000000  0     -69807.146  -2831999.623   6268710.907
10 0 59352  82902.000000  0    -354034.009  -2009391.337   6568850.571
10 0 59352  83022.000000  0    -617337.229  -1146928.808   6753556.094
10 0 59352  83142.000000  0    -854562.074   -260076.152   6819601.191
10 0 59352  83262.000000  0   -1061283.866    635198.550   6765832.103
10 0 59352  83382.000000  0   -1233890.021   1522710.608   6593186.213
10 0 59352  83502.000000  0   -1369642.871   2386350.512   6304676.609
10 0 59352  83622.000000  0   -1466723.223   3210376.188   5905342.972
10 0 59352  83742.000000  0   -1524253.831   3979701.362   5402168.416
10 0 59352  83862.000000  0   -1542301.497   4680175.138   4803963.930
10 0 59352  83982.000000  0   -1521859.199   5298849.201   4121220.144
10 0 59352  84102.000000  0   -1464806.964   5824225.392   3365926.974
10 0 59352  84222.000000  0   -1373853.959   6246478.358   2551365.438
10 0 59352  84342.000000  0   -1252462.563   6557649.806   1691872.863
10 0 59352  84462.000000  0   -1104753.068   6751807.200    802585.681
10 0 59352  84582.000000  0    -935394.186   6825162.366   -100833.413
10 0 59352  84702.000000  0    -749481.553   6776149.548  -1002479.326
10 0 59352  84822.000000  0    -552406.669   6605457.256  -1886495.842
10 0 59352  84942.000000  0    -349720.904   6316011.452  -2737363.246
10 0 59352  85062.000000  0    -146998.536   5912915.212  -3540175.014
10 0 59352  85182.000000  0      50298.781   5403347.743  -4280900.473
10 0 59352  85302.000000  0     236953.052   4796424.370  -4946628.744
10 0 59352  85422.000000  0     408113.165   4103021.526  -5525788.747
10 0 59352  85542.000000  0     559407.502   3335571.368  -6008342.559
10 0 59352  85662.000000  0     687043.026   2507830.505  -6385949.038
10 0 59352  85782.000000  0     787889.611   1634629.246  -6652096.152
10 0 59352  85902.000000  0     859548.390    731606.368  -6802202.464
10 0 59352  86022.000000  0     900402.638   -185067.657  -6833687.890
10 0 59352  86142.000000  0     909651.009  -1098975.047  -6746012.927
10 0 59352  86262.000000  0     887322.170  -1993737.420  -6540685.024
10 0 59352  86382.000000  0     834271.643  -2853300.468  -6221235.646
10 0 59353    102.000000  0     752160.445  -3662217.186  -5793168.700
10 0 59353    222.000000  0     643414.659  -4405924.592  -5263874.575
10 0 59353    342.000000  0     511168.553  -5071006.592  -4642513.163
10 0 59353    462.000000  0     359190.518  -5645441.435  -3939867.181
10 0 59353    582.000000  0     191793.212  -6118828.287  -3168164.557
10 0 59353    702.000000  0      13729.832  -6482586.509  -2340872.733
10 0 59353    822.000000  0    -169921.326  -6730124.621  -1472467.773
10 0 59353    942.000000  0    -353881.796  -6856972.659   -578179.996
10 0 59353   1062.000000  0    -532804.141  -6860873.068    326277.456
10 0 59353   1182.000000  0    -701406.267  -6741828.237   1224990.956
10 0 59353   1302.000000  0    -854605.575  -6502103.787   2102134.763
10 0 59353   1422.000000  0    -987649.296  -6146185.459   2942259.316
10 0 59353   1542.000000  0   -1096236.703  -5680690.663   3730572.429
10 0 59353   1662.000000  0   -1176630.556  -5114236.542   4453205.272
10 0 59353   1782.000000  0   -1225756.225  -4457270.964   5097457.991
10 0 59353   1902.000000  0   -1241284.703  -3721871.131   5652023.169
10 0 59353   2022.000000  0   -1221698.838  -2921511.328   6107182.780
10 0 59353   2142.000000  0   -1166339.882  -2070806.851   6454972.139
10 0 59353   2262.000000  0   -1075434.430  -1185243.095   6689312.010
10 0 59353   2382.000000  0    -950102.609   -280891.396   6806109.935
10 0 59353   2502.000000  0    -792346.922    625883.654   6803327.038
10 0 59353   2622.000000  0    -605020.345   1518719.750   6681011.802
10 0 59353   2742.000000  0    -391774.461   2381551.759   6441299.327
10 0 59353   2862.000000  0    -156988.983   3198900.530   6088376.228
10 0 59353   2982.000000  0      94315.819   3956151.682   5628412.173
10 0 59353   3102.000000  0     356582.563   4639820.341   5069457.485
10 0 59353   3222.000000  0     623835.329   5237797.180   4421308.925
10 0 59353   3342.000000  0     889810.035   5739571.137   3695341.462
10 0 59353   3462.000000  0    1148093.166   6136421.215   2904313.971
10 0 59353   3582.000000  0    1392270.807   6421583.520   2062146.339
10 0 59353   3702.000000  0    1616078.020   6590373.425   1183667.776
10 0 59353   3822.000000  0    1813548.041   6640268.470    284349.776
10 0 59353   3942.000000  0    1979156.950   6570946.674   -619974.438
10 0 59353   4062.000000  0    2107959.539   6384281.187  -1513396.670
10 0 59353   4182.000000  0    2195713.790   6084291.684  -2380221.116
10 0 59353   4302.000000  0    2238990.746   5677053.517  -3205246.745
10 0 59353   4422.000000  0    2235266.969   5170566.481  -3974038.661
10 0 59353   4542.000000  0    2182997.072   4574586.320  -4673181.586
10 0 59353   4662.000000  0    2081664.669   3900425.498  -5290510.054
10 0 59353   4782.000000  0    1931811.895   3160729.224  -5815312.503
10 0 59353   4902.000000  0    1735046.805   2369231.349  -6238507.910
10 0 59353   5022.000000  0    1494028.556   1540495.227  -6552791.225
10 0 59353   5142.000000  0    1212432.446    689646.329  -6752748.043
10 0 59353   5262.000000  0     894893.956   -167900.739  -6834939.109
10 0 59353   5382.000000  0     546932.493  -1016716.677  -6797952.547
10 0 59353   5502.000000  0     174857.076  -1841628.279  -6642423.783
10 0 59353   5622.000000  0    -214344.375  -2627981.413  -6371025.964
10 0 59353   5742.000000  0    -613132.666  -3361896.788  -5988430.958
10 0 59353   5862.000000  0   -1013558.968  -4030512.833  -5501236.443
10 0 59353   5982.000000  0   -1407418.161  -4622211.495  -4917863.418
10 0 59353   6102.000000  0   -1786412.756  -5126825.344  -4248422.538
10 0 59353   6222.000000  0   -2142324.248  -5535820.394  -3504549.144
10 0 59353   6342.000000  0   -2467188.010  -5842450.227  -2699209.209
10 0 59353   6462.000000  0   -2753468.010  -6041878.285  -1846478.969
10 0 59353   6582.000000  0   -2994227.618  -6131265.435   -961300.649
10 0 59353   6702.000000  0   -3183292.059  -6109818.822    -59217.555
10 0 59353   6822.000000  0   -3315397.368  -5978799.017    843905.285
10 0 59353   6942.000000  0   -3386322.213  -5741485.914   1732168.324
10 0 59353   7062.000000  0   -3392999.105  -5403103.337   2589926.862
10 0 59353   7182.000000  0   -3333601.687  -4970704.191   3402074.923
10 0 59353   7302.000000  0   -3207606.190  -4453020.295   4154317.862
10 0 59353   7422.000000  0   -3015825.799  -3860280.174   4833428.297
10 0 59353   7542.000000  0   -2760417.539  -3203999.298   5427479.711
10 0 59353   7662.000000  0   -2444860.960  -2496749.041   5926053.929
10 0 59353   7782.000000  0   -2073909.917  -1751910.539   6320419.328
10 0 59353   7902.000000  0   -1653518.719   -983417.812   6603679.705
10 0 59353   8022.000000  0   -1190743.034   -205492.849   6770888.777
10 0 59353   8142.000000  0    -693620.420    567617.790   6819128.704
10 0 59353   8262.000000  0    -171031.162   1321902.528   6747558.610
10 0 59353   8382.000000  0     367460.262   2043838.488   6557428.743
10 0 59353   8502.000000  0     911780.013   2720633.921   6252059.657
10 0 59353   8622.000000  0    1451532.435   3340454.787   5836787.607
10 0 59353   8742.000000  0    1976197.575   3892634.192   5318877.178
10 0 59353   8862.000000  0    2475336.307   4367860.795   4707400.669
10 0 59353   8982.000000  0    2938799.722   4758341.805   4013083.941
10 0 59353   9102.000000  0    3356936.014   5057936.064   3248122.339
10 0 59353   9222.000000  0    3720794.009   5262258.983   2425970.390
10 0 59353   9342.000000  0    4022318.110   5368751.985   1561100.512
10 0 59353   9462.000000  0    4254524.487   5376712.766    668744.136
10 0 59353   9582.000000  0    4411659.538   5287291.855   -235384.257
10 0 59353   9702.000000  0    4489333.352   5103447.292  -1135373.277
10 0 59353   9822.000000  0    4484627.016   4829864.043  -2015402.153
10 0 59353   9942.000000  0    4396169.680   4472839.741  -2860026.095
99
